NORAD_CAT_ID,OBJECT_NAME,OBJECT_TYPE,EPOCH,MEAN_MOTION,ECCENTRICITY,INCLINATION,RA_OF_ASC_NODE,ARG_OF_PERICENTER,MEAN_ANOMALY,BSTAR,MEAN_MOTION_DOT,MEAN_MOTION_DDOT,TLE_LINE0,TLE_LINE1,TLE_LINE2,SEMIMAJOR_AXIS,PERIOD,APOGEE,PERIGEE,DECAYED
51720.0,STARLINK-3526,PAYLOAD,2024-06-11 13:10:09,15.08925834,0.00018,53.2179,304.8399,76.0271,284.0921,-0.0012054,-0.00019466,0.0,0 STARLINK-3526,1 51720U 22016G   24163.54872440 -.00019466  00000-0 -12054-2 0  9998,2 51720  53.2179 304.8399 0001800  76.0271 284.0921 15.08925834127384,6917.618,95.432,540.728,538.238,0.0
51720.0,STARLINK-3526,PAYLOAD,2024-06-11 16:20:58,15.0884224,0.0001532,53.2184,304.2434,101.1494,258.967,0.00016678,2.367e-05,0.0,0 STARLINK-3526,1 51720U 22016G   24163.68123520  .00002367  00000-0  16678-3 0  9998,2 51720  53.2184 304.2434 0001532 101.1494 258.9670 15.08842240128463,6917.874,95.437,540.798,538.679,0.0
51720.0,STARLINK-3526,PAYLOAD,2024-06-12 13:01:00,15.08833667,0.0001058,53.218,300.3778,91.9478,268.1635,3.1757e-05,2.18e-06,0.0,0 STARLINK-3526,1 51720U 22016G   24164.54236436  .00000218  00000-0  31757-4 0  9994,2 51720  53.2180 300.3778 0001058  91.9478 268.1635 15.08833667128599,6917.9,95.438,540.497,539.033,0.0
51720.0,STARLINK-3526,PAYLOAD,2024-06-12 16:11:46,15.08832725,0.0001096,53.2185,299.7845,96.7419,263.3698,2.602e-05,1.26e-06,0.0,0 STARLINK-3526,1 51720U 22016G   24164.67484536  .00000126  00000-0  26020-4 0  9999,2 51720  53.2185 299.7845 0001096  96.7419 263.3698 15.08832725127555,6917.903,95.438,540.526,539.009,0.0
51720.0,STARLINK-3526,PAYLOAD,2024-06-13 12:51:46,15.0888726,7.24e-05,53.2183,295.9195,112.9283,247.1786,-0.00064368,-0.0001053,0.0,0 STARLINK-3526,1 51720U 22016G   24165.53595000 -.00010530  00000-0 -64368-3 0  9992,2 51720  53.2183 295.9195 0000724 112.9283 247.1786 15.08887260128740,6917.736,95.435,540.102,539.1,0.0
51720.0,STARLINK-3526,PAYLOAD,2024-06-13 14:27:09,15.08878208,8.12e-05,53.2182,295.6222,97.3104,262.7981,-0.00051026,-8.408e-05,0.0,0 STARLINK-3526,1 51720U 22016G   24165.60219123 -.00008408  00000-0 -51026-3 0  9997,2 51720  53.2182 295.6222 0000812  97.3104 262.7981 15.08878208127698,6917.764,95.435,540.19,539.067,0.0
51720.0,STARLINK-3526,PAYLOAD,2024-06-13 17:37:56,15.08820862,0.0001004,53.2181,295.0278,99.8977,260.2128,0.00035588,5.378e-05,0.0,0 STARLINK-3526,1 51720U 22016G   24165.73468575  .00005378  00000-0  35588-3 0  9994,2 51720  53.2181 295.0278 0001004  99.8977 260.2128 15.08820862127713,6917.939,95.439,540.498,539.109,0.0
51720.0,STARLINK-3526,PAYLOAD,2024-06-14 14:17:57,15.08830488,0.000119,53.2185,291.1637,84.0882,276.0245,6.8377e-05,8e-06,0.0,0 STARLINK-3526,1 51720U 22016G   24166.59580818  .00000800  00000-0  68377-4 0  9992,2 51720  53.2185 291.1637 0001190  84.0882 276.0245 15.08830488127844,6917.909,95.438,540.598,538.951,0.0
51720.0,STARLINK-3526,PAYLOAD,2024-06-14 17:28:43,15.08835215,0.0001091,53.218,290.5669,82.8684,277.2433,0.00010938,1.453e-05,0.0,0 STARLINK-3526,1 51720U 22016G   24166.72828467  .00001453  00000-0  10938-3 0  9996,2 51720  53.2180 290.5669 0001091  82.8684 277.2433 15.08835215127860,6917.895,95.438,540.515,539.005,0.0
51720.0,STARLINK-3526,PAYLOAD,2024-06-15 14:08:44,15.08836082,8.02e-05,53.2178,286.7006,95.9911,264.1173,-4.3263e-06,-3.56e-06,0.0,0 STARLINK-3526,1 51720U 22016G   24167.58940617 -.00000356  00000-0 -43263-5 0  9995,2 51720  53.2178 286.7006 0000802  95.9911 264.1173 15.08836082129058,6917.892,95.438,540.312,539.203,0.0
51720.0,STARLINK-3526,PAYLOAD,2024-06-15 15:44:07,15.08840958,0.0001068,53.2184,286.4027,91.0971,269.0143,3.7831e-05,3.14e-06,0.0,0 STARLINK-3526,1 51720U 22016G   24167.65564230  .00000314  00000-0  37831-4 0  9991,2 51720  53.2184 286.4027 0001068  91.0971 269.0143 15.08840958128005,6917.877,95.437,540.481,539.004,0.0
51720.0,STARLINK-3526,PAYLOAD,2024-06-16 13:59:31,15.08836174,0.0001248,53.2199,282.2379,101.0357,259.0776,6.0857e-05,6.81e-06,0.0,0 STARLINK-3526,1 51720U 22016G   24168.58300321  .00000681  00000-0  60857-4 0  9994,2 51720  53.2199 282.2379 0001248 101.0357 259.0776 15.08836174129204,6917.892,95.438,540.62,538.894,0.0
51720.0,STARLINK-3526,PAYLOAD,2024-06-16 17:10:17,15.08845605,0.0001187,53.2187,281.6421,106.4568,253.6555,2.2813e-05,7.5e-07,0.0,0 STARLINK-3526,1 51720U 22016G   24168.71547728  .00000075  00000-0  22813-4 0  9990,2 51720  53.2187 281.6421 0001187 106.4568 253.6555 15.08845605128165,6917.863,95.437,540.549,538.907,0.0
51720.0,STARLINK-3526,PAYLOAD,2024-06-17 13:50:18,15.0883027,0.0001174,53.2175,277.7793,105.9437,254.1685,2.8812e-05,1.71e-06,0.0,0 STARLINK-3526,1 51720U 22016G   24169.57660670  .00000171  00000-0  28812-4 0  9999,2 51720  53.2175 277.7793 0001174 105.9437 254.1685 15.08830270128291,6917.91,95.438,540.587,538.963,0.0
51720.0,STARLINK-3526,PAYLOAD,2024-06-18 13:41:05,15.08836337,8.51e-05,53.2188,273.3227,88.3726,271.7364,0.00013538,1.867e-05,0.0,0 STARLINK-3526,1 51720U 22016G   24170.57020210  .00001867  00000-0  13538-3 0  9992,2 51720  53.2188 273.3227 0000851  88.3726 271.7364 15.08836337129509,6917.892,95.438,540.345,539.168,0.0
51720.0,STARLINK-3526,PAYLOAD,2024-06-19 13:31:53,15.08824903,0.0001074,53.2176,268.8609,93.2357,266.8758,8.7769e-05,1.109e-05,0.0,0 STARLINK-3526,1 51720U 22016G   24171.56381316  .00001109  00000-0  87769-4 0  9996,2 51720  53.2176 268.8609 0001074  93.2357 266.8758 15.08824903129656,6917.927,95.439,540.535,539.049,0.0
51720.0,STARLINK-3526,PAYLOAD,2024-06-20 13:22:40,15.08839636,0.0001083,53.2175,264.399,86.5929,273.5187,5.8808e-05,6.48e-06,0.0,0 STARLINK-3526,1 51720U 22016G   24172.55740790  .00000648  00000-0  58808-4 0  9990,2 51720  53.2175 264.3990 0001083  86.5929 273.5187 15.08839636128748,6917.882,95.438,540.496,538.997,0.0
51720.0,STARLINK-3526,PAYLOAD,2024-06-20 16:33:26,15.0884062,0.0001086,53.2174,263.8041,85.6355,274.4761,6.3214e-05,7.18e-06,0.0,0 STARLINK-3526,1 51720U 22016G   24172.68988716  .00000718  00000-0  63214-4 0  9991,2 51720  53.2174 263.8041 0001086  85.6355 274.4761 15.08840620129827,6917.878,95.438,540.495,538.992,0.0
51720.0,STARLINK-3526,PAYLOAD,2024-06-20 22:54:58,15.08846258,0.0001198,53.2186,262.6156,87.2055,272.9074,0.00011242,1.502e-05,0.0,0 STARLINK-3526,1 51720U 22016G   24172.95484189  .00001502  00000-0  11242-3 0  9991,2 51720  53.2186 262.6156 0001198  87.2055 272.9074 15.08846258129860,6917.861,95.437,540.555,538.898,0.0
51720.0,STARLINK-3526,PAYLOAD,2024-06-21 13:13:27,15.08835826,0.0001408,53.2192,259.943,96.3713,263.744,0.00012282,1.667e-05,0.0,0 STARLINK-3526,1 51720U 22016G   24173.55101039  .00001667  00000-0  12282-3 0  9995,2 51720  53.2192 259.9430 0001408  96.3713 263.7440 15.08835826129951,6917.893,95.438,540.732,538.784,0.0
51720.0,STARLINK-3526,PAYLOAD,2024-06-21 14:48:50,15.08836623,0.0001422,53.2193,259.6457,96.2889,263.8265,0.00012792,1.748e-05,0.0,0 STARLINK-3526,1 51720U 22016G   24173.61725012  .00001748  00000-0  12792-3 0  9991,2 51720  53.2193 259.6457 0001422  96.2889 263.8265 15.08836623128903,6917.891,95.438,540.739,538.772,0.0
51720.0,STARLINK-3526,PAYLOAD,2024-06-22 13:04:14,15.08838814,0.0001271,53.2181,255.4787,86.2884,273.8253,3.5868e-05,2.83e-06,0.0,0 STARLINK-3526,1 51720U 22016G   24174.54461215  .00000283  00000-0  35868-4 0  9999,2 51720  53.2181 255.4787 0001271  86.2884 273.8253 15.08838814129044,6917.884,95.438,540.628,538.87,0.0
51720.0,STARLINK-3526,PAYLOAD,2024-06-22 14:39:37,15.08838919,0.0001273,53.2181,255.1813,85.8926,274.2212,3.5917e-05,2.84e-06,0.0,0 STARLINK-3526,1 51720U 22016G   24174.61085215  .00000284  00000-0  35917-4 0  9995,2 51720  53.2181 255.1813 0001273  85.8926 274.2212 15.08838919130111,6917.884,95.438,540.629,538.868,0.0
51720.0,STARLINK-3526,PAYLOAD,2024-06-23 04:58:05,15.08857152,0.0001456,53.2182,252.505,78.9847,281.1309,-0.00021464,-3.704e-05,0.0,0 STARLINK-3526,1 51720U 22016G   24175.20700495 -.00003704  00000-0 -21464-3 0  9998,2 51720  53.2182 252.5050 0001456  78.9847 281.1309 15.08857152130208,6917.828,95.436,540.7,538.686,0.0
51720.0,STARLINK-3526,PAYLOAD,2024-06-23 11:19:38,15.08842556,0.0001292,53.218,251.316,82.5689,277.545,5.4184e-05,5.75e-06,0.0,0 STARLINK-3526,1 51720U 22016G   24175.47196952  .00000575  00000-0  54184-4 0  9991,2 51720  53.2180 251.3160 0001292  82.5689 277.5450 15.08842556130240,6917.873,95.437,540.631,538.844,0.0
51720.0,STARLINK-3526,PAYLOAD,2024-06-23 14:30:24,15.08846056,0.0001263,53.2174,250.7199,85.8922,274.2214,8.3415e-05,1.04e-05,0.0,0 STARLINK-3526,1 51720U 22016G   24175.60444569  .00001040  00000-0  83415-4 0  9993,2 51720  53.2174 250.7199 0001263  85.8922 274.2214 15.08846056129207,6917.862,95.437,540.601,538.853,0.0
51720.0,STARLINK-3526,PAYLOAD,2024-06-24 11:10:24,15.08843749,0.0001244,53.217,246.8536,87.4233,272.6901,0.00010946,1.455e-05,0.0,0 STARLINK-3526,1 51720U 22016G   24176.46556440  .00001455  00000-0  10946-3 0  9998,2 51720  53.2170 246.8536 0001244  87.4233 272.6901 15.08843749129331,6917.869,95.437,540.595,538.873,0.0
51720.0,STARLINK-3526,PAYLOAD,2024-06-25 11:01:12,15.08840849,0.0001294,53.2168,242.3931,91.3165,268.7975,6.2705e-07,-2.78e-06,0.0,0 STARLINK-3526,1 51720U 22016G   24177.45916801 -.00000278  00000-0  62705-6 0  9995,2 51720  53.2168 242.3931 0001294  91.3165 268.7975 15.08840849130541,6917.878,95.438,540.638,538.848,0.0
51720.0,STARLINK-3526,PAYLOAD,2024-06-26 10:51:59,15.08840491,0.0001392,53.2165,237.9334,97.6214,262.4936,3.3311e-05,2.42e-06,0.0,0 STARLINK-3526,1 51720U 22016G   24178.45276640  .00000242  00000-0  33311-4 0  9995,2 51720  53.2165 237.9334 0001392  97.6214 262.4936 15.08840491129637,6917.879,95.438,540.707,538.781,0.0
51720.0,STARLINK-3526,PAYLOAD,2024-06-27 10:42:46,15.08831134,0.0001343,53.2159,233.4737,84.7835,275.3311,1.7545e-05,-9e-08,0.0,0 STARLINK-3526,1 51720U 22016G   24179.44637606 -.00000009  00000-0  17545-4 0  9991,2 51720  53.2159 233.4737 0001343  84.7835 275.3311 15.08831134130849,6917.907,95.438,540.702,538.843,0.0
